[{"OBJECT_NAME":"STARLINK-2494","OBJECT_ID":"2021-040BM","EPOCH":"2026-03-09T15:52:46.220448","MEAN_MOTION":15.30208187,"ECCENTRICITY":0.00014118,"INCLINATION":53.162,"RA_OF_ASC_NODE":194.1526,"ARG_OF_PERICENTER":74.5162,"MEAN_ANOMALY":285.5994,"EPHEMERIS_TYPE":0,"CLASSIFICATION_TYPE":"U","NORAD_CAT_ID":48487,"ELEMENT_SET_NO":999,"REV_AT_EPOCH":26646,"BSTAR":0.00040475051,"MEAN_MOTION_DOT":0.0001165,"MEAN_MOTION_DDOT":0},{"OBJECT_NAME":"CZ-6A DEB","OBJECT_ID":"2022-151NB","EPOCH":"2026-03-09T18:26:17.609568","MEAN_MOTION":15.22372787,"ECCENTRICITY":0.00267955,"INCLINATION":98.6489,"RA_OF_ASC_NODE":154.0342,"ARG_OF_PERICENTER":180.4296,"MEAN_ANOMALY":179.6918,"EPHEMERIS_TYPE":0,"CLASSIFICATION_TYPE":"U","NORAD_CAT_ID":54601,"ELEMENT_SET_NO":999,"REV_AT_EPOCH":17694,"BSTAR":0.011449911,"MEAN_MOTION_DOT":0.00276508,"MEAN_MOTION_DDOT":0}]
